FENGYUN 1C DEB          
1 41830U 99025EYH 17344.68355372  .00000618  00000-0  36128-3 0  9997
2 41830  98.9491  38.2154 0065710 258.5867 100.7918 14.11048746 59175
